{"type": "FeatureCollection", "features": [ {"type": "Feature", "properties": {"norad_id": 60453, "name": "LEGION 4", "group": "resource", "lat": -19.38050161492688, "lon": 61.48683398787167, "alt_km": 517.5073509418689, "timestamp": "2025-12-05T05:43:14.772351+00:00", "meta": {"OBJECT_NAME": "LEGION 4", "OBJECT_ID": "2024-146B", "EPOCH": "2025-12-04T15:36:27.389664", "MEAN_MOTION": 15.15691703, "ECCENTRICITY": 0.000996, "INCLINATION": 45.0387, "RA_OF_ASC_NODE": 85.2201, "ARG_OF_PERICENTER": 268.9762, "MEAN_ANOMALY": 90.9976, "EPHEMERIS_TYPE": 0, "CLASSIFICATION_TYPE": "U", "NORAD_CAT_ID": 60453, "ELEMENT_SET_NO": 999, "REV_AT_EPOCH": 7135, "BSTAR": 0.00065691, "MEAN_MOTION_DOT": 0.00012492, "MEAN_MOTION_DDOT": 0}, "tle": {"line1": "1 60453U 24146B   25338.65031701  .00012492  00000+0  65691-3 0  9996", "line2": "2 60453  45.0387  85.2201 0009960 268.9762  90.9976 15.15691703 71353"}}, "geometry": {"type": "Point", "coordinates": [61.48683398787167, -19.38050161492688]}}, {"type": "Feature", "properties": {"norad_id": 60989, "name": "SENTINEL-2C", "group": "resource", "lat": -80.77577033227418, "lon": 163.76531365300207, "alt_km": 797.0947487981857, "timestamp": "2025-12-05T05:43:14.772361+00:00", "meta": {"OBJECT_NAME": "SENTINEL-2C", "OBJECT_ID": "2024-157A", "EPOCH": "2025-12-04T16:43:49.846080", "MEAN_MOTION": 14.30825318, "ECCENTRICITY": 0.0001132, "INCLINATION": 98.5612, "RA_OF_ASC_NODE": 51.2952, "ARG_OF_PERICENTER": 101.5414, "MEAN_ANOMALY": 258.5896, "EPHEMERIS_TYPE": 0, "CLASSIFICATION_TYPE": "U", "NORAD_CAT_ID": 60989, "ELEMENT_SET_NO": 999, "REV_AT_EPOCH": 6517, "BSTAR": 0.00014025, "MEAN_MOTION_DOT": 3.24e-06, "MEAN_MOTION_DDOT": 0}, "tle": {"line1": "1 60989U 24157A   25338.69710470  .00000324  00000+0  14025-3 0  9999", "line2": "2 60989  98.5612  51.2952 0001132 101.5414 258.5896 14.30825318 65179"}}, "geometry": {"type": "Point", "coordinates": [163.76531365300207, -80.77577033227418]}}, {"type": "Feature", "properties": {"norad_id": 61735, "name": "IONOSFERA-M 1", "group": "resource", "lat": 30.81230166705558, "lon": -156.12112631091424, "alt_km": 813.534305784292, "timestamp": "2025-12-05T05:43:14.772371+00:00", "meta": {"OBJECT_NAME": "IONOSFERA-M 1", "OBJECT_ID": "2024-199A", "EPOCH": "2025-12-04T17:45:34.031808", "MEAN_MOTION": 14.22711363, "ECCENTRICITY": 0.0001315, "INCLINATION": 98.7408, "RA_OF_ASC_NODE": 208.6492, "ARG_OF_PERICENTER": 32.8059, "MEAN_ANOMALY": 327.32, "EPHEMERIS_TYPE": 0, "CLASSIFICATION_TYPE": "U", "NORAD_CAT_ID": 61735, "ELEMENT_SET_NO": 999, "REV_AT_EPOCH": 10005, "BSTAR": 9.5756e-05, "MEAN_MOTION_DOT": 1.7e-06, "MEAN_MOTION_DDOT": 0}, "tle": {"line1": "1 61735U 24199A   25338.73997722  .00000170  00000+0  95756-4 0  9997", "line2": "2 61735  98.7408 208.6492 0001315  32.8059 327.3200 14.22711363100051"}}, "geometry": {"type": "Point", "coordinates": [-156.12112631091424, 30.81230166705558]}}, {"type": "Feature", "properties": {"norad_id": 61736, "name": "IONOSFERA-M 2", "group": "resource", "lat": -33.58641325026708, "lon": 23.192445171749473, "alt_km": 822.402732190888, "timestamp": "2025-12-05T05:43:14.772381+00:00", "meta": {"OBJECT_NAME": "IONOSFERA-M 2", "OBJECT_ID": "2024-199B", "EPOCH": "2025-12-04T18:35:28.392288", "MEAN_MOTION": 14.22713521, "ECCENTRICITY": 0.0001425, "INCLINATION": 98.7407, "RA_OF_ASC_NODE": 208.5962, "ARG_OF_PERICENTER": 120.1606, "MEAN_ANOMALY": 239.9713, "EPHEMERIS_TYPE": 0, "CLASSIFICATION_TYPE": "U", "NORAD_CAT_ID": 61736, "ELEMENT_SET_NO": 999, "REV_AT_EPOCH": 10318, "BSTAR": 9.9121e-05, "MEAN_MOTION_DOT": 1.78e-06, "MEAN_MOTION_DDOT": 0}, "tle": {"line1": "1 61736U 24199B   25338.77463417  .00000178  00000+0  99121-4 0  9999", "line2": "2 61736  98.7407 208.5962 0001425 120.1606 239.9713 14.22713521103185"}}, "geometry": {"type": "Point", "coordinates": [23.192445171749473, -33.58641325026708]}}, {"type": "Feature", "properties": {"norad_id": 63772, "name": "BIOMASS", "group": "resource", "lat": -78.75012075444752, "lon": -150.14060161724396, "alt_km": 677.0665620358232, "timestamp": "2025-12-05T05:43:14.772391+00:00", "meta": {"OBJECT_NAME": "BIOMASS", "OBJECT_ID": "2025-090A", "EPOCH": "2025-12-04T12:05:40.661376", "MEAN_MOTION": 14.67542436, "ECCENTRICITY": 0.0001223, "INCLINATION": 98.0699, "RA_OF_ASC_NODE": 163.6332, "ARG_OF_PERICENTER": 81.7537, "MEAN_ANOMALY": 278.3806, "EPHEMERIS_TYPE": 0, "CLASSIFICATION_TYPE": "U", "NORAD_CAT_ID": 63772, "ELEMENT_SET_NO": 999, "REV_AT_EPOCH": 3213, "BSTAR": 0.00057194, "MEAN_MOTION_DOT": 3.197e-05, "MEAN_MOTION_DDOT": 0}, "tle": {"line1": "1 63772U 25090A   25338.50394284  .00003197  00000+0  57194-3 0  9995", "line2": "2 63772  98.0699 163.6332 0001223  81.7537 278.3806 14.67542436 32136"}}, "geometry": {"type": "Point", "coordinates": [-150.14060161724396, -78.75012075444752]}}, {"type": "Feature", "properties": {"norad_id": 64694, "name": "GOSAT-GW (IBUKI GW)", "group": "resource", "lat": 52.30807196123827, "lon": 105.42683438053596, "alt_km": 663.4259580351736, "timestamp": "2025-12-05T05:43:14.772401+00:00", "meta": {"OBJECT_NAME": "GOSAT-GW (IBUKI GW)", "OBJECT_ID": "2025-141A", "EPOCH": "2025-11-30T05:41:32.267328", "MEAN_MOTION": 14.67567435, "ECCENTRICITY": 0.00014369, "INCLINATION": 98.0401, "RA_OF_ASC_NODE": 269.9775, "ARG_OF_PERICENTER": 82.921, "MEAN_ANOMALY": 277.2158, "EPHEMERIS_TYPE": 0, "CLASSIFICATION_TYPE": "U", "NORAD_CAT_ID": 64694, "ELEMENT_SET_NO": 999, "REV_AT_EPOCH": 2266, "BSTAR": 0.00019762357, "MEAN_MOTION_DOT": 1.074e-05, "MEAN_MOTION_DDOT": 0}, "tle": {"line1": "1 64694U 25141A   25334.23717902  .00001074  00000+0  19762-3 0  9999", "line2": "2 64694  98.0401 269.9775 0001436  82.9210 277.2158 14.67567435 22660"}}, "geometry": {"type": "Point", "coordinates": [105.42683438053596, 52.30807196123827]}}, {"type": "Feature", "properties": {"norad_id": 64876, "name": "IONOSFERA-M 3", "group": "resource", "lat": -65.90193575153886, "lon": -38.96286117076397, "alt_km": 828.9813509621445, "timestamp": "2025-12-05T05:43:14.772411+00:00", "meta": {"OBJECT_NAME": "IONOSFERA-M 3", "OBJECT_ID": "2025-155A", "EPOCH": "2025-12-04T18:12:42.073056", "MEAN_MOTION": 14.21438021, "ECCENTRICITY": 0.0002375, "INCLINATION": 98.5771, "RA_OF_ASC_NODE": 300.8513, "ARG_OF_PERICENTER": 72.5422, "MEAN_ANOMALY": 287.6015, "EPHEMERIS_TYPE": 0, "CLASSIFICATION_TYPE": "U", "NORAD_CAT_ID": 64876, "ELEMENT_SET_NO": 999, "REV_AT_EPOCH": 1878, "BSTAR": 9.9783e-05, "MEAN_MOTION_DOT": 1.75e-06, "MEAN_MOTION_DDOT": 0}, "tle": {"line1": "1 64876U 25155A   25338.75882029  .00000175  00000+0  99783-4 0  9993", "line2": "2 64876  98.5771 300.8513 0002375  72.5422 287.6015 14.21438021 18788"}}, "geometry": {"type": "Point", "coordinates": [-38.96286117076397, -65.90193575153886]}}, {"type": "Feature", "properties": {"norad_id": 64877, "name": "IONOSFERA-M 4", "group": "resource", "lat": 65.20227465964271, "lon": 140.30282909956424, "alt_km": 813.1907911193703, "timestamp": "2025-12-05T05:43:14.772421+00:00", "meta": {"OBJECT_NAME": "IONOSFERA-M 4", "OBJECT_ID": "2025-155B", "EPOCH": "2025-12-04T19:03:12.291264", "MEAN_MOTION": 14.2143908, "ECCENTRICITY": 0.0001731, "INCLINATION": 98.577, "RA_OF_ASC_NODE": 300.805, "ARG_OF_PERICENTER": 71.5515, "MEAN_ANOMALY": 288.5851, "EPHEMERIS_TYPE": 0, "CLASSIFICATION_TYPE": "U", "NORAD_CAT_ID": 64877, "ELEMENT_SET_NO": 999, "REV_AT_EPOCH": 1878, "BSTAR": 0.00010095, "MEAN_MOTION_DOT": 1.78e-06, "MEAN_MOTION_DDOT": 0}, "tle": {"line1": "1 64877U 25155B   25338.79389226  .00000178  00000+0  10095-3 0  9990", "line2": "2 64877  98.5770 300.8050 0001731  71.5515 288.5851 14.21439080 18785"}}, "geometry": {"type": "Point", "coordinates": [140.30282909956424, 65.20227465964271]}}, {"type": "Feature", "properties": {"norad_id": 64899, "name": "MICROCARB", "group": "resource", "lat": -16.479234823053403, "lon": 57.089326373120706, "alt_km": 671.0816819306783, "timestamp": "2025-12-05T05:43:14.772431+00:00", "meta": {"OBJECT_NAME": "MICROCARB", "OBJECT_ID": "2025-156A", "EPOCH": "2025-12-04T16:44:43.522944", "MEAN_MOTION": 14.72037023, "ECCENTRICITY": 0.0016594, "INCLINATION": 98.0034, "RA_OF_ASC_NODE": 54.172, "ARG_OF_PERICENTER": 169.7341, "MEAN_ANOMALY": 190.4208, "EPHEMERIS_TYPE": 0, "CLASSIFICATION_TYPE": "U", "NORAD_CAT_ID": 64899, "ELEMENT_SET_NO": 999, "REV_AT_EPOCH": 1935, "BSTAR": 0.00024502, "MEAN_MOTION_DOT": 1.492e-05, "MEAN_MOTION_DDOT": 0}, "tle": {"line1": "1 64899U 25156A   25338.69772596  .00001492  00000+0  24502-3 0  9998", "line2": "2 64899  98.0034  54.1720 0016594 169.7341 190.4208 14.72037023 19358"}}, "geometry": {"type": "Point", "coordinates": [57.089326373120706, -16.479234823053403]}}, {"type": "Feature", "properties": {"norad_id": 64900, "name": "CO3D 3", "group": "resource", "lat": 12.658981653399755, "lon": -122.60577674975505, "alt_km": 505.66333666454375, "timestamp": "2025-12-05T05:43:14.772441+00:00", "meta": {"OBJECT_NAME": "CO3D 3", "OBJECT_ID": "2025-156B", "EPOCH": "2025-12-02T23:16:40.108224", "MEAN_MOTION": 15.2021179, "ECCENTRICITY": 0.00013753, "INCLINATION": 97.4352, "RA_OF_ASC_NODE": 53.4771, "ARG_OF_PERICENTER": 132.9697, "MEAN_ANOMALY": 227.1654, "EPHEMERIS_TYPE": 0, "CLASSIFICATION_TYPE": "U", "NORAD_CAT_ID": 64900, "ELEMENT_SET_NO": 999, "REV_AT_EPOCH": 1972, "BSTAR": 0.00042667501, "MEAN_MOTION_DOT": 9.183e-05, "MEAN_MOTION_DDOT": 0}, "tle": {"line1": "1 64900U 25156B   25336.96990866  .00009183  00000+0  42668-3 0  9999", "line2": "2 64900  97.4352  53.4771 0001375 132.9697 227.1654 15.20211790 19725"}}, "geometry": {"type": "Point", "coordinates": [-122.60577674975505, 12.658981653399755]}}]}